ORBCOMM FM103           
1 40091U 14040F   24201.32080265  .00002058  00000+0  49273-3 0  9990
2 40091  47.0052 148.3062 0001760 212.8743 147.2033 14.56775106515541
ORBCOMM FM114           
1 41179U 15081A   24201.55694133  .00002147  00000+0  51135-3 0  9993
2 41179  47.0028  56.4222 0001911 254.6050 105.4624 14.56868571455940
ORBCOMM FM119           
1 41180U 15081B   24201.59960687  .00001658  00000+0  40438-3 0  9999
2 41180  47.0025 325.4425 0001917 296.1381  63.9306 14.56760045457200
ORBCOMM FM105           
1 41181U 15081C   24201.54671771  .00000759  00000+0  26293-3 0  9992
2 41181  47.0025 299.0394 0002670 266.5238  93.5336 14.44484708452642
ORBCOMM FM110           
1 41182U 15081D   24201.53485072  .00002260  00000+0  53669-3 0  9995
2 41182  47.0017  55.9361 0001301  83.4687 276.6346 14.56834857455815
ORBCOMM FM118           
1 41183U 15081E   24201.58114587  .00001927  00000+0  46314-3 0  9999
2 41183  47.0038  56.0421 0001526  77.8130 282.2926 14.56839210455924
ORBCOMM FM112           
1 41184U 15081F   24201.50785951  .00002448  00000+0  57919-3 0  9993
2 41184  46.9999 325.0766 0002386 278.9368  81.1247 14.56756375457139
ORBCOMM FM113           
1 41185U 15081G   24201.62231495  .00002346  00000+0  55664-3 0  9998
2 41185  47.0017 324.8159 0001929 287.0379  73.0294 14.56755314457135
